{
    "links": {
        "self": "http://www.neowsapp.com/rest/v1/neo/3771016?api_key=iIulBulltgU6a56xZRHN4H3l9WmuAYTsLGpBGhQ2"
    },
    "id": "3771016",
    "neo_reference_id": "3771016",
    "name": "(2017 EX2)",
    "designation": "2017 EX2",
    "nasa_jpl_url": "http://ssd.jpl.nasa.gov/sbdb.cgi?sstr=3771016",
    "absolute_magnitude_h": 21.2,
    "estimated_diameter": {
        "kilometers": {
            "estimated_diameter_min": 0.1529519353,
            "estimated_diameter_max": 0.3420109247
        },
        "meters": {
            "estimated_diameter_min": 152.9519353442,
            "estimated_diameter_max": 342.0109247198
        },
        "miles": {
            "estimated_diameter_min": 0.095039897,
            "estimated_diameter_max": 0.2125156703
        },
        "feet": {
            "estimated_diameter_min": 501.8108275547,
            "estimated_diameter_max": 1122.0831222578
        }
    },
    "is_potentially_hazardous_asteroid": false,
    "close_approach_data": [
        {
            "close_approach_date": "2017-03-13",
            "close_approach_date_full": "2017-Mar-13 15:21",
            "epoch_date_close_approach": 1489418460000,
            "relative_velocity": {
                "kilometers_per_second": "32.1069748999",
                "kilometers_per_hour": "115585.1096396792",
                "miles_per_hour": "71820.0921536107"
            },
            "miss_distance": {
                "astronomical": "0.2922685525",
                "lunar": "113.6924669225",
                "kilometers": "43722752.921983175",
                "miles": "27168058.866090815"
            },
            "orbiting_body": "Earth"
        }
    ],
    "orbital_data": {
        "orbit_id": "13",
        "orbit_determination_date": "2020-08-29 07:47:55",
        "first_observation_date": "2017-02-23",
        "last_observation_date": "2017-03-28",
        "data_arc_in_days": 33,
        "observations_used": 76,
        "orbit_uncertainty": "7",
        "minimum_orbit_intersection": ".292531",
        "jupiter_tisserand_invariant": "2.851",
        "epoch_osculation": "2459000.5",
        "eccentricity": ".4812818129970255",
        "semi_major_axis": "2.249733246381995",
        "inclination": "62.19339671105156",
        "ascending_node_longitude": "354.8972690664029",
        "orbital_period": "1232.522812751135",
        "perihelion_distance": "1.166977550803585",
        "perihelion_argument": "132.9423260800149",
        "aphelion_distance": "3.332488941960406",
        "perihelion_time": "2459011.386686531438",
        "mean_anomaly": "356.8201747580075",
        "mean_motion": ".2920838432162062",
        "equinox": "J2000",
        "orbit_class": {
            "orbit_class_type": "AMO",
            "orbit_class_description": "Near-Earth asteroid orbits similar to that of 1221 Amor",
            "orbit_class_range": "1.017 AU < q (perihelion) < 1.3 AU"
        }
    },
    "is_sentry_object": false
}